NORAD_CAT_ID,OBJECT_NAME,OBJECT_TYPE,EPOCH,MEAN_MOTION,ECCENTRICITY,INCLINATION,RA_OF_ASC_NODE,ARG_OF_PERICENTER,MEAN_ANOMALY,BSTAR,MEAN_MOTION_DOT,MEAN_MOTION_DDOT,TLE_LINE0,TLE_LINE1,TLE_LINE2,SEMIMAJOR_AXIS,PERIOD,APOGEE,PERIGEE,DECAYED
54766.0,STARLINK-5471,PAYLOAD,2024-06-16 12:26:05,15.0882774,0.0001419,53.2205,357.5524,81.8469,278.2684,-7.199e-05,-1.433e-05,0.0,0 STARLINK-5471,1 54766U 22175J   24168.51811784 -.00001433  00000-0 -71990-4 0  9994,2 54766  53.2205 357.5524 0001419  81.8469 278.2684 15.08827740 84639,6917.918,95.438,540.765,538.801,0.0
54766.0,STARLINK-5471,PAYLOAD,2024-06-16 18:47:37,15.08841676,0.0001744,53.218,356.3637,87.1119,273.0073,-4.1397e-05,-9.47e-06,0.0,0 STARLINK-5471,1 54766U 22175J   24168.78306847 -.00000947  00000-0 -41397-4 0  9999,2 54766  53.2180 356.3637 0001744  87.1119 273.0073 15.08841676 84678,6917.875,95.437,540.947,538.534,0.0
54766.0,STARLINK-5471,PAYLOAD,2024-06-17 21:49:10,15.08839174,0.0001471,53.2204,351.3085,91.0148,269.1013,-4.138e-05,-9.46e-06,0.0,0 STARLINK-5471,1 54766U 22175J   24169.90914968 -.00000946  00000-0 -41380-4 0  9994,2 54766  53.2204 351.3085 0001471  91.0148 269.1013 15.08839174 84849,6917.883,95.438,540.766,538.73,0.0
54766.0,STARLINK-5471,PAYLOAD,2024-06-18 12:07:38,15.08826797,0.0001218,53.223,348.6321,99.5933,260.5197,0.00019225,2.772e-05,0.0,0 STARLINK-5471,1 54766U 22175J   24170.50530796  .00002772  00000-0  19225-3 0  9994,2 54766  53.2230 348.6321 0001218  99.5933 260.5197 15.08826797 84939,6917.921,95.438,540.628,538.943,0.0
54766.0,STARLINK-5471,PAYLOAD,2024-06-18 18:29:11,15.08835231,0.0001583,53.2199,347.4466,81.088,279.0291,5.8843e-05,6.48e-06,0.0,0 STARLINK-5471,1 54766U 22175J   24170.77026960  .00000648  00000-0  58843-4 0  9996,2 54766  53.2199 347.4466 0001583  81.0880 279.0291 15.08835231 84979,6917.895,95.438,540.855,538.665,0.0
54766.0,STARLINK-5471,PAYLOAD,2024-06-19 11:58:26,15.08806643,0.0001448,53.2194,344.1754,90.1294,269.9864,0.00041078,6.25e-05,0.0,0 STARLINK-5471,1 54766U 22175J   24171.49891706  .00006250  00000-0  41078-3 0  9990,2 54766  53.2194 344.1754 0001448  90.1294 269.9864 15.08806643 82920,6917.982,95.44,540.849,538.846,0.0
54766.0,STARLINK-5471,PAYLOAD,2024-06-19 18:19:58,15.08837223,0.0001453,53.2183,342.9831,87.4152,272.7006,4.1434e-05,3.71e-06,0.0,0 STARLINK-5471,1 54766U 22175J   24171.76387008  .00000371  00000-0  41434-4 0  9990,2 54766  53.2183 342.9831 0001453  87.4152 272.7006 15.08837223 82960,6917.889,95.438,540.759,538.749,0.0
54766.0,STARLINK-5471,PAYLOAD,2024-06-20 03:52:16,15.08845905,0.00013,53.2194,341.1991,87.5126,272.6015,9.2569e-05,1.186e-05,0.0,0 STARLINK-5471,1 54766U 22175J   24172.16130193  .00001186  00000-0  92569-4 0  9996,2 54766  53.2194 341.1991 0001300  87.5126 272.6015 15.08845905 83026,6917.862,95.437,540.627,538.828,0.0
54766.0,STARLINK-5471,PAYLOAD,2024-06-20 11:49:13,15.08835513,0.0001701,53.2185,339.7155,94.9579,265.1607,4.0198e-05,3.52e-06,0.0,0 STARLINK-5471,1 54766U 22175J   24172.49251183  .00000352  00000-0  40198-4 0  9990,2 54766  53.2185 339.7155 0001701  94.9579 265.1607 15.08835513 85233,6917.894,95.438,540.936,538.582,0.0
54766.0,STARLINK-5471,PAYLOAD,2024-06-20 16:35:22,15.08828485,0.0001487,53.2215,338.8252,110.1014,250.0139,3.9615e-05,3.42e-06,0.0,0 STARLINK-5471,1 54766U 22175J   24172.69123604  .00000342  00000-0  39615-4 0  9999,2 54766  53.2215 338.8252 0001487 110.1014 250.0139 15.08828485 85267,6917.916,95.438,540.809,538.752,0.0
54766.0,STARLINK-5471,PAYLOAD,2024-06-20 18:10:45,15.08832007,0.0001247,53.2189,338.5267,99.3304,260.7829,7.175e-06,-1.74e-06,0.0,0 STARLINK-5471,1 54766U 22175J   24172.75747537 -.00000174  00000-0  71750-5 0  9994,2 54766  53.2189 338.5267 0001247  99.3304 260.7829 15.08832007 83115,6917.905,95.438,540.632,538.907,0.0
54766.0,STARLINK-5471,PAYLOAD,2024-06-21 11:40:00,15.08837318,0.0001438,53.2205,335.2561,110.3187,249.796,5.3056e-05,5.56e-06,0.0,0 STARLINK-5471,1 54766U 22175J   24173.48611262  .00000556  00000-0  53056-4 0  9991,2 54766  53.2205 335.2561 0001438 110.3187 249.7960 15.08837318 83225,6917.889,95.438,540.748,538.759,0.0
54766.0,STARLINK-5471,PAYLOAD,2024-06-21 16:26:09,15.08836329,0.000128,53.2197,334.3635,102.8204,257.2931,3.1111e-05,2.07e-06,0.0,0 STARLINK-5471,1 54766U 22175J   24173.68483469  .00000207  00000-0  31111-4 0  9990,2 54766  53.2197 334.3635 0001280 102.8204 257.2931 15.08836329 85414,6917.892,95.438,540.642,538.871,0.0
54766.0,STARLINK-5471,PAYLOAD,2024-06-22 14:41:33,15.08831927,0.0001215,53.2196,330.1988,96.0741,264.0389,9.9126e-05,1.29e-05,0.0,0 STARLINK-5471,1 54766U 22175J   24174.61219690  .00001290  00000-0  99126-4 0  9990,2 54766  53.2196 330.1988 0001215  96.0741 264.0389 15.08831927 85553,6917.905,95.438,540.611,538.93,0.0
54766.0,STARLINK-5471,PAYLOAD,2024-06-22 16:16:56,15.08836944,9.67e-05,53.2179,329.8992,84.5861,275.5242,6.9125e-05,8.12e-06,0.0,0 STARLINK-5471,1 54766U 22175J   24174.67843488  .00000812  00000-0  69125-4 0  9999,2 54766  53.2179 329.8992 0000967  84.5861 275.5242 15.08836944 83403,6917.89,95.438,540.424,539.086,0.0
54766.0,STARLINK-5471,PAYLOAD,2024-06-23 14:32:20,15.0883839,0.0001094,53.2183,325.7358,90.2327,269.879,3.4204e-05,2.57e-06,0.0,0 STARLINK-5471,1 54766U 22175J   24175.60579630  .00000257  00000-0  34204-4 0  9991,2 54766  53.2183 325.7358 0001094  90.2327 269.8790 15.08838390 85708,6917.885,95.438,540.507,538.993,0.0
54766.0,STARLINK-5471,PAYLOAD,2024-06-23 19:18:29,15.08842242,0.0001112,53.2185,324.8438,89.7323,270.3796,6.4536e-05,7.39e-06,0.0,0 STARLINK-5471,1 54766U 22175J   24175.80451303  .00000739  00000-0  64536-4 0  9995,2 54766  53.2185 324.8438 0001112  89.7323 270.3796 15.08842242 83576,6917.874,95.437,540.508,538.969,0.0
54766.0,STARLINK-5471,PAYLOAD,2024-06-24 14:23:07,15.08839609,0.0001119,53.2185,321.2763,94.6081,265.5039,5.495e-05,5.87e-06,0.0,0 STARLINK-5471,1 54766U 22175J   24176.59939429  .00000587  00000-0  54950-4 0  9992,2 54766  53.2185 321.2763 0001119  94.6081 265.5039 15.08839609 85853,6917.882,95.438,540.521,538.972,0.0
54766.0,STARLINK-5471,PAYLOAD,2024-06-24 15:58:30,15.08840636,0.0001126,53.2183,320.9787,94.6985,265.4136,6.3398e-05,7.21e-06,0.0,0 STARLINK-5471,1 54766U 22175J   24176.66563338  .00000721  00000-0  63398-4 0  9998,2 54766  53.2183 320.9787 0001126  94.6985 265.4136 15.08840636 85864,6917.878,95.438,540.522,538.964,0.0
54766.0,STARLINK-5471,PAYLOAD,2024-06-25 12:38:31,15.0884219,0.0001116,53.2183,317.1134,89.9833,270.1287,1.9841e-05,2.8e-07,0.0,0 STARLINK-5471,1 54766U 22175J   24177.52675389  .00000028  00000-0  19841-4 0  9998,2 54766  53.2183 317.1134 0001116  89.9833 270.1287 15.08842190 83838,6917.874,95.437,540.511,538.967,0.0
54766.0,STARLINK-5471,PAYLOAD,2024-06-25 14:13:54,15.08842,0.0001113,53.2182,316.816,90.564,269.548,1.8086e-05,0.0,0.0,0 STARLINK-5471,1 54766U 22175J   24177.59299389  .00000000  00000-0  18086-4 0  9997,2 54766  53.2182 316.8160 0001113  90.5640 269.5480 15.08842000 86002,6917.874,95.437,540.509,538.969,0.0
54766.0,STARLINK-5471,PAYLOAD,2024-06-25 17:24:40,15.08843936,0.0001137,53.2184,316.2212,93.8666,266.2456,3.5936e-05,2.84e-06,0.0,0 STARLINK-5471,1 54766U 22175J   24177.72547171  .00000284  00000-0  35936-4 0  9994,2 54766  53.2184 316.2212 0001137  93.8666 266.2456 15.08843936 86024,6917.868,95.437,540.52,538.947,0.0
54766.0,STARLINK-5471,PAYLOAD,2024-06-26 07:43:09,15.08840196,0.0001274,53.2187,313.5448,105.4537,254.6595,1.9471e-05,2.2e-07,0.0,0 STARLINK-5471,1 54766U 22175J   24178.32163376  .00000022  00000-0  19471-4 0  9998,2 54766  53.2187 313.5448 0001274 105.4537 254.6595 15.08840196 86117,6917.88,95.438,540.626,538.863,0.0
54766.0,STARLINK-5471,PAYLOAD,2024-06-27 12:20:05,15.08836954,0.0001258,53.2187,308.1923,105.9568,254.1563,1.6307e-05,-2.8e-07,0.0,0 STARLINK-5471,1 54766U 22175J   24179.51395748 -.00000028  00000-0  16307-4 0  9992,2 54766  53.2187 308.1923 0001258 105.9568 254.1563 15.08836954 84133,6917.89,95.438,540.625,538.884,0.0
54766.0,STARLINK-5471,PAYLOAD,2024-06-27 15:30:52,15.08837092,0.0001194,53.2184,307.5998,86.7792,273.3337,7.3043e-06,-1.72e-06,0.0,0 STARLINK-5471,1 54766U 22175J   24179.64643875 -.00000172  00000-0  73043-5 0  9994,2 54766  53.2184 307.5998 0001194  86.7792 273.3337 15.08837092 86317,6917.889,95.438,540.58,538.928,0.0
54766.0,STARLINK-5471,PAYLOAD,2024-06-28 01:03:10,15.08847816,0.0001186,53.2187,305.8153,86.7255,273.3873,8.1189e-05,1.005e-05,0.0,0 STARLINK-5471,1 54766U 22175J   24180.04386857  .00001005  00000-0  81189-4 0  9998,2 54766  53.2187 305.8153 0001186  86.7255 273.3873 15.08847816 84216,6917.856,95.437,540.542,538.901,0.0
54766.0,STARLINK-5471,PAYLOAD,2024-06-28 12:10:53,15.0882887,0.0001113,53.2174,303.7323,76.5873,283.5244,-1.1903e-05,-4.77e-06,0.0,0 STARLINK-5471,1 54766U 22175J   24180.50756515 -.00000477  00000-0 -11903-4 0  9992,2 54766  53.2174 303.7323 0001113  76.5873 283.5244 15.08828870 84282,6917.914,95.438,540.549,539.009,0.0
54766.0,STARLINK-5471,PAYLOAD,2024-06-28 13:46:16,15.08831956,0.0001212,53.2176,303.4358,84.9693,275.1438,1.1895e-05,-9.9e-07,0.0,0 STARLINK-5471,1 54766U 22175J   24180.57380277 -.00000099  00000-0  11895-4 0  9996,2 54766  53.2176 303.4358 0001212  84.9693 275.1438 15.08831956 86454,6917.905,95.438,540.608,538.932,0.0
54766.0,STARLINK-5471,PAYLOAD,2024-06-29 00:53:56,15.08859811,0.0001118,53.2172,301.3526,45.6523,314.456,0.00022574,3.309e-05,0.0,0 STARLINK-5471,1 54766U 22175J   24181.03745626  .00003309  00000-0  22574-3 0  9992,2 54766  53.2172 301.3526 0001118  45.6523 314.4560 15.08859811 84366,6917.82,95.436,540.458,538.911,0.0
54766.0,STARLINK-5471,PAYLOAD,2024-06-29 13:37:05,15.08808768,0.000137,53.2173,298.974,61.0238,299.0891,-0.00019316,-3.358e-05,0.0,0 STARLINK-5471,1 54766U 22175J   24181.56742713 -.00003358  00000-0 -19316-3 0  9990,2 54766  53.2173 298.9740 0001370  61.0238 299.0891 15.08808768 84440,6917.976,95.44,540.789,538.893,0.0
